OBJECT_NAME,OBJECT_ID,EPOCH,MEAN_MOTION,ECCENTRICITY,INCLINATION,RA_OF_ASC_NODE,ARG_OF_PERICENTER,MEAN_ANOMALY,EPHEMERIS_TYPE,CLASSIFICATION_TYPE,NORAD_CAT_ID,ELEMENT_SET_NO,REV_AT_EPOCH,BSTAR,MEAN_MOTION_DOT,MEAN_MOTION_DDOT
FENGYUN 1C DEB,1999-025WR,2024-01-20T08:54:04.644576,14.53283092,.0158641,98.6743,181.6632,316.3204,101.1890,0,U,30232,999,89656,.10694E-2,.5188E-4,0
FENGYUN 1C DEB,1999-025WS,2024-01-20T10:30:03.938976,14.75791099,.0035862,99.0260,91.2425,47.1608,313.2601,0,U,30233,999,89410,.52514E-2,.36482E-3,0
FENGYUN 1C DEB,1999-025WT,2024-01-20T15:37:03.449568,14.15148445,.0066956,98.6723,45.1796,259.3463,226.7351,0,U,30234,999,87661,.56487E-3,.1077E-4,0
FENGYUN 1C DEB,1999-025WU,2024-01-20T17:06:14.647392,14.06971919,.0157463,98.8097,51.6586,30.4536,91.3213,0,U,30235,999,87166,.47366E-3,.842E-5,0
FENGYUN 1C DEB,1999-025WW,2024-01-20T04:06:06.973056,14.26400568,.0019246,98.8419,102.8603,184.4470,235.8028,0,U,30237,999,87774,.32406E-2,.7771E-4,0
FENGYUN 1C DEB,1999-025WY,2024-01-20T14:18:14.213376,11.22867548,.1479574,99.5279,37.0319,143.6565,227.4742,0,U,30239,999,68349,.13117E-1,.5151E-4,0
FENGYUN 1C DEB,1999-025XA,2024-01-20T07:24:17.699616,14.07925792,.0148468,99.0686,139.9206,215.8360,199.8592,0,U,30241,999,87162,.98706E-3,.1808E-4,0
FENGYUN 1C DEB,1999-025XB,2024-01-20T02:47:28.605984,14.14848868,.0011149,98.7581,62.4615,227.2914,195.7044,0,U,30242,999,87622,.91438E-3,.1722E-4,0
FENGYUN 1C DEB,1999-025XC,2024-01-19T23:44:03.195168,14.11292178,.0011716,98.7333,44.8633,292.5218,128.8749,0,U,30243,999,87501,.62413E-3,.1085E-4,0
FENGYUN 1C DEB,1999-025XD,2024-01-20T13:48:36.778752,14.13285377,.0010499,99.2274,245.0940,94.4792,330.7107,0,U,30244,999,87577,.61105E-3,.1099E-4,0
FENGYUN 1C DEB,1999-025XE,2024-01-20T00:31:54.540192,13.75949896,.0199086,98.8899,46.2050,302.1267,56.0700,0,U,30245,999,85156,.19049E-2,.2094E-4,0
FENGYUN 1C DEB,1999-025XF,2024-01-20T14:35:57.380928,13.36348612,.0372686,98.6859,260.4589,38.5620,22.7571,0,U,30246,999,82903,.83127E-3,.603E-5,0
FENGYUN 1C DEB,1999-025XG,2024-01-20T05:26:38.022144,14.28975495,.0284227,98.3064,297.9339,294.9041,222.1774,0,U,30247,999,87286,.5341E-2,.209E-3,0
FENGYUN 1C DEB,1999-025XH,2024-01-20T07:47:50.878752,14.26907140,.0049965,99.0940,152.4255,30.7944,329.6149,0,U,30248,999,87445,.42199E-2,.10352E-3,0
FENGYUN 1C DEB,1999-025XJ,2024-01-20T20:33:19.527264,14.29201178,.0044019,98.9499,144.1036,295.9125,187.5560,0,U,30249,999,87738,.45087E-2,.11542E-3,0
FENGYUN 1C DEB,1999-025XK,2024-01-19T23:35:40.372224,14.00131483,.0067976,98.7481,35.3925,354.5251,66.2520,0,U,30250,999,86805,.84938E-3,.1236E-4,0
FENGYUN 1C DEB,1999-025XL,2024-01-20T10:48:43.524000,14.25875578,.0054582,99.0350,187.7258,168.6040,247.0050,0,U,30251,999,88263,.11414E-2,.2714E-4,0
FENGYUN 1C DEB,1999-025XM,2024-01-20T13:08:05.291808,14.07762119,.0068525,98.7931,48.5319,37.2013,87.0596,0,U,30252,999,87219,.66492E-3,.1107E-4,0
FENGYUN 1C DEB,1999-025XN,2024-01-20T08:50:02.457600,13.68336618,.0233273,98.7140,164.0162,78.1472,337.6051,0,U,30253,999,84527,.25182E-2,.2565E-4,0
FENGYUN 1C DEB,1999-025XS,2024-01-20T13:20:04.337664,14.09031341,.0058299,98.7447,33.0686,256.9686,229.8856,0,U,30257,999,87478,.33448E-3,.545E-5,0
FENGYUN 1C DEB,1999-025XU,2024-01-20T11:04:19.666272,14.46337764,.0259082,98.7840,196.8040,197.4426,218.9130,0,U,30259,999,89448,.10589E-2,.572E-4,0
FENGYUN 1C DEB,1999-025XW,2024-01-20T07:06:08.237952,15.01388693,.0148518,98.7585,294.2225,129.2758,232.1747,0,U,30261,999,91793,.8693E-3,.14151E-3,0
FENGYUN 1C DEB,1999-025XY,2024-01-19T01:43:32.841696,13.96199490,.0158954,98.8652,148.3200,121.9576,296.0850,0,U,30263,999,86326,.24889E-2,.3766E-4,0
FENGYUN 1C DEB,1999-025XZ,2024-01-20T03:23:38.193792,14.03551699,.011403,99.0325,73.9310,61.2836,2.1645,0,U,30264,999,86827,.13774E-2,.2245E-4,0
FENGYUN 1C DEB,1999-025YA,2024-01-19T04:24:18.420192,14.37189154,.0041206,98.6742,105.3155,306.4098,115.2578,0,U,30265,999,88366,.3205E-2,.9597E-4,0
FENGYUN 1C DEB,1999-025YB,2024-01-20T16:41:44.958336,14.08884859,.0091772,99.0925,71.0764,211.7602,272.4469,0,U,30266,999,87030,.19565E-2,.347E-4,0
FENGYUN 1C DEB,1999-025YC,2024-01-20T03:53:05.490240,14.16397221,.0064668,98.8974,83.3901,72.6659,288.1575,0,U,30267,999,87464,.19405E-2,.3892E-4,0
FENGYUN 1C DEB,1999-025YF,2024-01-20T15:25:16.561920,14.10703772,.0006707,98.7509,48.1354,337.1324,138.5384,0,U,30270,999,87601,.19646E-3,.308E-5,0
FENGYUN 1C DEB,1999-025YH,2024-01-20T15:49:51.258720,14.09044987,.0055466,98.9483,85.7320,255.4944,104.0068,0,U,30272,999,87100,.17621E-2,.3054E-4,0
FENGYUN 1C DEB,1999-025YJ,2024-01-20T15:32:08.712384,14.00565730,.0065385,98.8950,48.6910,17.3569,108.3732,0,U,30273,999,86833,.79038E-3,.1154E-4,0
FENGYUN 1C DEB,1999-025YK,2024-01-19T23:40:59.138976,14.33765574,.0003797,99.3153,80.6488,83.0718,38.8547,0,U,30274,999,88223,.28176E-2,.7789E-4,0
FENGYUN 1C DEB,1999-025YL,2024-01-20T11:13:11.586144,14.30716933,.0049657,98.6681,94.3102,85.7784,35.4684,0,U,30275,999,88134,.25634E-2,.6759E-4,0
FENGYUN 1C DEB,1999-025YM,2024-01-20T16:15:17.784288,14.19912868,.002628,98.9122,79.4422,281.2541,78.5681,0,U,30276,999,87696,.19552E-2,.4122E-4,0
FENGYUN 1C DEB,1999-025YN,2024-01-20T15:33:30.929760,14.08046516,.0131178,99.0332,83.7102,325.7822,187.0121,0,U,30277,999,87029,.16286E-2,.2954E-4,0
FENGYUN 1C DEB,1999-025YQ,2024-01-20T14:50:14.454240,14.18358608,.0230096,99.1462,285.2708,245.5891,183.6892,0,U,30279,999,87782,.12537E-2,.3309E-4,0
FENGYUN 1C DEB,1999-025YR,2024-01-20T14:12:45.513216,13.97324060,.0081321,98.7580,35.4765,88.6455,32.7056,0,U,30280,999,86748,.34289E-3,.454E-5,0
FENGYUN 1C DEB,1999-025YS,2024-01-20T12:46:24.117312,14.09383959,.0029955,98.7210,24.2976,39.5908,76.0497,0,U,30281,999,87466,.5905E-3,.992E-5,0
FENGYUN 1C DEB,1999-025YT,2024-01-20T15:23:44.187360,14.11489956,.0214004,98.5383,51.8325,183.1739,303.3337,0,U,30282,999,87594,.36432E-3,.777E-5,0
FENGYUN 1C DEB,1999-025YU,2024-01-19T23:32:04.337664,14.01320469,.0190514,98.8488,27.4718,172.1147,244.3303,0,U,30283,999,86986,.33882E-6,-.41E-6,0
FENGYUN 1C DEB,1999-025YV,2024-01-20T16:29:01.541760,14.20285827,.0041511,98.7692,86.0254,312.8827,174.6584,0,U,30284,999,87676,.20864E-2,.4458E-4,0
FENGYUN 1C DEB,1999-025YX,2024-01-20T20:20:56.279040,14.12236575,.0063503,98.7071,39.4347,303.6498,181.1760,0,U,30286,999,87702,.1761E-3,.287E-5,0
FENGYUN 1C DEB,1999-025YY,2024-01-20T04:52:48.152640,13.64417741,.0427723,98.6980,117.7907,45.4732,20.0406,0,U,30287,999,84398,.10651E-2,.1558E-4,0
FENGYUN 1C DEB,1999-025YZ,2024-01-19T12:52:40.200960,14.22779583,.0026136,99.4370,41.7636,146.3038,7.1035,0,U,30288,999,87676,.24902E-2,.5559E-4,0
FENGYUN 1C DEB,1999-025ZA,2024-01-20T04:53:44.946816,14.15138475,.0048962,98.9418,103.5125,157.1841,258.8698,0,U,30289,999,87248,.30441E-2,.5936E-4,0
FENGYUN 1C DEB,1999-025ZB,2024-01-19T05:58:12.933120,14.34608065,.0041753,102.6351,128.7788,64.2773,351.5605,0,U,30290,999,87810,.51251E-2,.14586E-3,0
FENGYUN 1C DEB,1999-025ZC,2024-01-20T10:56:02.148288,14.28961565,.0165297,97.2267,7.2239,11.1294,118.1771,0,U,30291,999,87727,.60106E-2,.17605E-3,0
FENGYUN 1C DEB,1999-025ZE,2024-01-20T20:29:32.241696,14.40160032,.008771,99.2030,145.6879,358.2963,153.6570,0,U,30293,999,88997,.11834E-2,.3862E-4,0
FENGYUN 1C DEB,1999-025ZF,2024-01-20T13:52:47.223840,14.31483036,.0206581,98.3242,27.6590,211.3615,273.1236,0,U,30294,999,88620,.65293E-3,.2145E-4,0
FENGYUN 1C DEB,1999-025ZG,2024-01-20T14:37:44.160096,14.23935970,.009404,98.5800,55.8319,301.6662,189.1706,0,U,30295,999,88322,.32542E-3,.737E-5,0
FENGYUN 1C DEB,1999-025ZJ,2024-01-20T20:19:39.143712,13.96933336,.0470873,98.7539,340.3469,279.4184,132.1770,0,U,30297,999,85415,.50892E-2,.18329E-3,0
FENGYUN 1C DEB,1999-025ZK,2024-01-20T04:28:59.222784,14.10846092,.005358,99.0272,97.6478,286.8245,128.1916,0,U,30298,999,87036,.26863E-2,.4835E-4,0
FENGYUN 1C DEB,1999-025ZL,2024-01-20T16:26:45.771936,14.01794832,.0113986,99.1416,83.6963,130.0386,354.3153,0,U,30299,999,86581,.23109E-2,.3673E-4,0
FENGYUN 1C DEB,1999-025ZM,2024-01-20T14:15:46.503936,14.15675654,.0088256,99.0768,66.0008,113.9192,38.3332,0,U,30300,999,87151,.27147E-2,.5485E-4,0
FENGYUN 1C DEB,1999-025ZN,2024-01-19T22:25:29.930880,14.23285247,.0107939,98.6426,161.0153,190.1270,300.2045,0,U,30301,999,87273,.74686E-2,.17959E-3,0
FENGYUN 1C DEB,1999-025ZP,2024-01-18T14:16:13.201536,14.01479275,.0123633,98.5583,316.6235,287.9125,70.8594,0,U,30302,999,86278,.58934E-2,.9486E-4,0
FENGYUN 1C DEB,1999-025ZQ,2024-01-20T13:55:28.276032,14.15255081,.0088794,99.0536,76.7945,101.9854,259.1289,0,U,30303,999,87205,.26133E-2,.5238E-4,0
FENGYUN 1C DEB,1999-025ZR,2024-01-20T14:59:33.848448,14.09442486,.008312,99.0806,79.6827,197.7098,162.1170,0,U,30304,999,87051,.184E-2,.3272E-4,0
FENGYUN 1C DEB,1999-025ZS,2024-01-20T07:56:51.240768,13.59657841,.0267056,98.5275,41.1729,115.6786,15.2434,0,U,30305,999,84362,.33023E-3,.276E-5,0
FENGYUN 1C DEB,1999-025ZT,2024-01-20T08:17:02.731200,14.21662860,.0126364,98.6497,67.6044,214.0449,145.2575,0,U,30306,999,87819,.15871E-2,.3736E-4,0
FENGYUN 1C DEB,1999-025ZW,2024-01-20T14:46:23.968416,13.92624136,.0093395,99.3178,70.6130,266.8051,92.2420,0,U,30309,999,86396,.47855E-3,.594E-5,0
FENGYUN 1C DEB,1999-025ZX,2024-01-20T15:22:33.392928,14.05116447,.0250888,98.7336,59.9570,151.3989,210.1210,0,U,30310,999,87013,.68045E-3,.1414E-4,0
FENGYUN 1C DEB,1999-025ZY,2024-01-20T06:43:02.814816,13.76890893,.0166361,99.1079,136.9361,232.5657,126.0258,0,U,30311,999,85427,.80894E-3,.84E-5,0
FENGYUN 1C DEB,1999-025ZZ,2024-01-20T03:03:42.225120,14.30190660,.0013961,98.9106,69.8050,100.0195,320.4877,0,U,30312,999,87966,.28765E-2,.7417E-4,0
FENGYUN 1C DEB,1999-025AAA,2024-01-20T10:43:41.080800,14.15973904,.0068438,98.9082,96.4802,164.0972,259.9210,0,U,30313,999,87258,.26425E-2,.5288E-4,0
FENGYUN 1C DEB,1999-025AAB,2024-01-20T15:26:57.948864,13.97376957,.0143427,98.4388,261.7405,142.0791,219.0580,0,U,30314,999,86440,.12991E-2,.1952E-4,0
